{"type": "FeatureCollection", "features": [ {"type": "Feature", "properties": {"norad_id": 65304, "name": "DRAGON CRS-33", "group": "stations", "lat": 16.723114468500988, "lon": 119.52808049994199, "alt_km": 416.643480794949, "timestamp": "2025-12-20T03:42:46.150388+00:00", "meta": {"OBJECT_NAME": "DRAGON CRS-33", "OBJECT_ID": "2025-186A", "EPOCH": "2025-12-19T10:35:44.375712", "MEAN_MOTION": 15.49667075, "ECCENTRICITY": 0.00031732, "INCLINATION": 51.6317, "RA_OF_ASC_NODE": 109.2912, "ARG_OF_PERICENTER": 271.328, "MEAN_ANOMALY": 88.7345, "EPHEMERIS_TYPE": 0, "CLASSIFICATION_TYPE": "U", "NORAD_CAT_ID": 65304, "ELEMENT_SET_NO": 999, "REV_AT_EPOCH": 11, "BSTAR": 0.00012809493, "MEAN_MOTION_DOT": 6.778e-05, "MEAN_MOTION_DDOT": 0}, "tle": {"line1": "1 65304U 25186A   25353.44148583  .00006778  00000+0  12809-3 0  9995", "line2": "2 65304  51.6317 109.2912 0003173 271.3280  88.7345 15.49667075   111"}}, "geometry": {"type": "Point", "coordinates": [119.52808049994199, 16.723114468500988]}}, {"type": "Feature", "properties": {"norad_id": 65586, "name": "PROGRESS-MS 32", "group": "stations", "lat": 16.723114960661867, "lon": 119.52808093706597, "alt_km": 416.64348074126247, "timestamp": "2025-12-20T03:42:46.150398+00:00", "meta": {"OBJECT_NAME": "PROGRESS-MS 32", "OBJECT_ID": "2025-204A", "EPOCH": "2025-12-19T10:35:44.375712", "MEAN_MOTION": 15.49667075, "ECCENTRICITY": 0.00031732, "INCLINATION": 51.6317, "RA_OF_ASC_NODE": 109.2912, "ARG_OF_PERICENTER": 271.328, "MEAN_ANOMALY": 88.7345, "EPHEMERIS_TYPE": 0, "CLASSIFICATION_TYPE": "U", "NORAD_CAT_ID": 65586, "ELEMENT_SET_NO": 999, "REV_AT_EPOCH": 27, "BSTAR": 0.00012809493, "MEAN_MOTION_DOT": 6.778e-05, "MEAN_MOTION_DDOT": 0}, "tle": {"line1": "1 65586U 25204A   25353.44148583  .00006778  00000+0  12809-3 0  9998", "line2": "2 65586  51.6317 109.2912 0003173 271.3280  88.7345 15.49667075   270"}}, "geometry": {"type": "Point", "coordinates": [119.52808093706597, 16.723114960661867]}}, {"type": "Feature", "properties": {"norad_id": 65616, "name": "CYGNUS NG-23", "group": "stations", "lat": 16.723115452822142, "lon": 119.52808137418943, "alt_km": 416.6434806875759, "timestamp": "2025-12-20T03:42:46.150408+00:00", "meta": {"OBJECT_NAME": "CYGNUS NG-23", "OBJECT_ID": "2025-208A", "EPOCH": "2025-12-19T10:35:44.375712", "MEAN_MOTION": 15.49667075, "ECCENTRICITY": 0.00031732, "INCLINATION": 51.6317, "RA_OF_ASC_NODE": 109.2912, "ARG_OF_PERICENTER": 271.328, "MEAN_ANOMALY": 88.7345, "EPHEMERIS_TYPE": 0, "CLASSIFICATION_TYPE": "U", "NORAD_CAT_ID": 65616, "ELEMENT_SET_NO": 999, "REV_AT_EPOCH": 22, "BSTAR": 0.00012809493, "MEAN_MOTION_DOT": 6.778e-05, "MEAN_MOTION_DDOT": 0}, "tle": {"line1": "1 65616U 25208A   25353.44148583  .00006778  00000+0  12809-3 0  9996", "line2": "2 65616  51.6317 109.2912 0003173 271.3280  88.7345 15.49667075   229"}}, "geometry": {"type": "Point", "coordinates": [119.52808137418943, 16.723115452822142]}}, {"type": "Feature", "properties": {"norad_id": 65729, "name": "DRAGONFLY", "group": "stations", "lat": -51.60166629688701, "lon": 6.873005763982317, "alt_km": 348.16550862570057, "timestamp": "2025-12-20T03:42:46.150418+00:00", "meta": {"OBJECT_NAME": "DRAGONFLY", "OBJECT_ID": "1998-067XH", "EPOCH": "2025-12-19T14:23:03.835680", "MEAN_MOTION": 15.741828, "ECCENTRICITY": 0.000728, "INCLINATION": 51.6251, "RA_OF_ASC_NODE": 100.5779, "ARG_OF_PERICENTER": 320.5398, "MEAN_ANOMALY": 39.507, "EPHEMERIS_TYPE": 0, "CLASSIFICATION_TYPE": "U", "NORAD_CAT_ID": 65729, "ELEMENT_SET_NO": 999, "REV_AT_EPOCH": 1424, "BSTAR": 0.00096899, "MEAN_MOTION_DOT": 0.00144123, "MEAN_MOTION_DDOT": 0}, "tle": {"line1": "1 65729U 98067XH  25353.59934995  .00144123  00000+0  96899-3 0  9998", "line2": "2 65729  51.6251 100.5779 0007280 320.5398  39.5070 15.74182800 14248"}}, "geometry": {"type": "Point", "coordinates": [6.873005763982317, -51.60166629688701]}}, {"type": "Feature", "properties": {"norad_id": 65731, "name": "1998-067XK", "group": "stations", "lat": 45.66570795922683, "lon": -134.62174869870623, "alt_km": 364.0462700873022, "timestamp": "2025-12-20T03:42:46.150429+00:00", "meta": {"OBJECT_NAME": "1998-067XK", "OBJECT_ID": "1998-067XK", "EPOCH": "2025-12-18T14:29:38.955840", "MEAN_MOTION": 15.66848038, "ECCENTRICITY": 0.0004791, "INCLINATION": 51.6292, "RA_OF_ASC_NODE": 107.4546, "ARG_OF_PERICENTER": 283.3796, "MEAN_ANOMALY": 76.6665, "EPHEMERIS_TYPE": 0, "CLASSIFICATION_TYPE": "U", "NORAD_CAT_ID": 65731, "ELEMENT_SET_NO": 999, "REV_AT_EPOCH": 1406, "BSTAR": 0.00083587979, "MEAN_MOTION_DOT": 0.00090673, "MEAN_MOTION_DDOT": 0}, "tle": {"line1": "1 65731U 98067XK  25352.60392310  .00090673  00000+0  83588-3 0  9992", "line2": "2 65731  51.6292 107.4546 0004791 283.3796  76.6665 15.66848038 14061"}}, "geometry": {"type": "Point", "coordinates": [-134.62174869870623, 45.66570795922683]}}, {"type": "Feature", "properties": {"norad_id": 65732, "name": "RSP-03", "group": "stations", "lat": 7.993495817118702, "lon": -87.69781450335185, "alt_km": 359.6016401540537, "timestamp": "2025-12-20T03:42:46.150439+00:00", "meta": {"OBJECT_NAME": "RSP-03", "OBJECT_ID": "1998-067XL", "EPOCH": "2025-12-19T10:11:34.022112", "MEAN_MOTION": 15.70283101, "ECCENTRICITY": 0.0005658, "INCLINATION": 51.6265, "RA_OF_ASC_NODE": 102.4221, "ARG_OF_PERICENTER": 294.5755, "MEAN_ANOMALY": 65.4652, "EPHEMERIS_TYPE": 0, "CLASSIFICATION_TYPE": "U", "NORAD_CAT_ID": 65732, "ELEMENT_SET_NO": 999, "REV_AT_EPOCH": 1421, "BSTAR": 0.00084699, "MEAN_MOTION_DOT": 0.00106087, "MEAN_MOTION_DDOT": 0}, "tle": {"line1": "1 65732U 98067XL  25353.42469933  .00106087  00000+0  84699-3 0  9991", "line2": "2 65732  51.6265 102.4221 0005658 294.5755  65.4652 15.70283101 14217"}}, "geometry": {"type": "Point", "coordinates": [-87.69781450335185, 7.993495817118702]}}, {"type": "Feature", "properties": {"norad_id": 65733, "name": "GHS-01", "group": "stations", "lat": -51.58904718574507, "lon": 9.023920390432664, "alt_km": 337.5757100540268, "timestamp": "2025-12-20T03:42:46.150449+00:00", "meta": {"OBJECT_NAME": "GHS-01", "OBJECT_ID": "1998-067XM", "EPOCH": "2025-12-19T17:26:50.754912", "MEAN_MOTION": 15.77819432, "ECCENTRICITY": 0.0008343, "INCLINATION": 51.6273, "RA_OF_ASC_NODE": 99.1864, "ARG_OF_PERICENTER": 325.0318, "MEAN_ANOMALY": 35.0134, "EPHEMERIS_TYPE": 0, "CLASSIFICATION_TYPE": "U", "NORAD_CAT_ID": 65733, "ELEMENT_SET_NO": 999, "REV_AT_EPOCH": 1428, "BSTAR": 0.0010728, "MEAN_MOTION_DOT": 0.00188446, "MEAN_MOTION_DDOT": 0}, "tle": {"line1": "1 65733U 98067XM  25353.72697633  .00188446  00000+0  10728-2 0  9995", "line2": "2 65733  51.6273  99.1864 0008343 325.0318  35.0134 15.77819432 14285"}}, "geometry": {"type": "Point", "coordinates": [9.023920390432664, -51.58904718574507]}}, {"type": "Feature", "properties": {"norad_id": 65941, "name": "YOTSUBA-KULOVER", "group": "stations", "lat": 43.46230551050558, "lon": 151.34926179188628, "alt_km": 380.7348035445384, "timestamp": "2025-12-20T03:42:46.150460+00:00", "meta": {"OBJECT_NAME": "YOTSUBA-KULOVER", "OBJECT_ID": "1998-067XN", "EPOCH": "2025-12-19T10:32:35.848320", "MEAN_MOTION": 15.60329664, "ECCENTRICITY": 0.00017537, "INCLINATION": 51.6289, "RA_OF_ASC_NODE": 106.2819, "ARG_OF_PERICENTER": 320.2615, "MEAN_ANOMALY": 39.8249, "EPHEMERIS_TYPE": 0, "CLASSIFICATION_TYPE": "U", "NORAD_CAT_ID": 65941, "ELEMENT_SET_NO": 999, "REV_AT_EPOCH": 1090, "BSTAR": 0.0006131661, "MEAN_MOTION_DOT": 0.00050991, "MEAN_MOTION_DDOT": 0}, "tle": {"line1": "1 65941U 98067XN  25353.43930380  .00050991  00000+0  61317-3 0  9997", "line2": "2 65941  51.6289 106.2819 0001753 320.2615  39.8249 15.60329664 10907"}}, "geometry": {"type": "Point", "coordinates": [151.34926179188628, 43.46230551050558]}}, {"type": "Feature", "properties": {"norad_id": 65942, "name": "BOTAN", "group": "stations", "lat": 37.52690764287266, "lon": -115.699632561701, "alt_km": 371.9745474431711, "timestamp": "2025-12-20T03:42:46.150470+00:00", "meta": {"OBJECT_NAME": "BOTAN", "OBJECT_ID": "1998-067XP", "EPOCH": "2025-12-19T08:45:55.508256", "MEAN_MOTION": 15.64228558, "ECCENTRICITY": 0.00028928, "INCLINATION": 51.6281, "RA_OF_ASC_NODE": 105.787, "ARG_OF_PERICENTER": 295.6773, "MEAN_ANOMALY": 64.3923, "EPHEMERIS_TYPE": 0, "CLASSIFICATION_TYPE": "U", "NORAD_CAT_ID": 65942, "ELEMENT_SET_NO": 999, "REV_AT_EPOCH": 1090, "BSTAR": 0.00085844533, "MEAN_MOTION_DOT": 0.00083736, "MEAN_MOTION_DDOT": 0}, "tle": {"line1": "1 65942U 98067XP  25353.36522579  .00083736  00000+0  85845-3 0  9992", "line2": "2 65942  51.6281 105.7870 0002892 295.6773  64.3923 15.64228558 10902"}}, "geometry": {"type": "Point", "coordinates": [-115.699632561701, 37.52690764287266]}}, {"type": "Feature", "properties": {"norad_id": 65943, "name": "E-KAGAKU-1", "group": "stations", "lat": 43.20665786944281, "lon": 150.77338519465513, "alt_km": 381.32466999211465, "timestamp": "2025-12-20T03:42:46.150480+00:00", "meta": {"OBJECT_NAME": "E-KAGAKU-1", "OBJECT_ID": "1998-067XQ", "EPOCH": "2025-12-18T08:24:49.666176", "MEAN_MOTION": 15.60193795, "ECCENTRICITY": 0.00013451, "INCLINATION": 51.6302, "RA_OF_ASC_NODE": 111.7666, "ARG_OF_PERICENTER": 249.8249, "MEAN_ANOMALY": 110.26, "EPHEMERIS_TYPE": 0, "CLASSIFICATION_TYPE": "U", "NORAD_CAT_ID": 65943, "ELEMENT_SET_NO": 999, "REV_AT_EPOCH": 1073, "BSTAR": 0.00084619625, "MEAN_MOTION_DOT": 0.00070368, "MEAN_MOTION_DDOT": 0}, "tle": {"line1": "1 65943U 98067XQ  25352.35057484  .00070368  00000+0  84620-3 0  9996", "line2": "2 65943  51.6302 111.7666 0001345 249.8249 110.2600 15.60193795 10732"}}, "geometry": {"type": "Point", "coordinates": [150.77338519465513, 43.20665786944281]}}]}